{"type": "FeatureCollection", "features": [ {"type": "Feature", "properties": {"norad_id": 30648, "name": "FENGYUN 1C DEB", "group": "fengyun-1c-debris", "lat": -5.551596851812894, "lon": 75.29768112887425, "alt_km": 758.0792075444424, "timestamp": "2025-12-05T22:40:48.828266+00:00", "meta": {"OBJECT_NAME": "FENGYUN 1C DEB", "OBJECT_ID": "1999-025APF", "EPOCH": "2025-12-05T06:14:29.095872", "MEAN_MOTION": 14.47929706, "ECCENTRICITY": 0.00348339, "INCLINATION": 98.6435, "RA_OF_ASC_NODE": 73.7505, "ARG_OF_PERICENTER": 149.7497, "MEAN_ANOMALY": 236.6378, "EPHEMERIS_TYPE": 0, "CLASSIFICATION_TYPE": "U", "NORAD_CAT_ID": 30648, "ELEMENT_SET_NO": 999, "REV_AT_EPOCH": 97758, "BSTAR": 0.0045167509, "MEAN_MOTION_DOT": 0.0001687, "MEAN_MOTION_DDOT": 0}, "tle": {"line1": "1 30648U 99025APF 25339.26005898  .00016870  00000+0  45168-2 0  9993", "line2": "2 30648  98.6435  73.7505 0034833 149.7497 236.6378 14.47929706977587"}}, "geometry": {"type": "Point", "coordinates": [75.29768112887425, -5.551596851812894]}}, {"type": "Feature", "properties": {"norad_id": 30649, "name": "FENGYUN 1C DEB", "group": "fengyun-1c-debris", "lat": -58.06787819767419, "lon": -119.23028887752234, "alt_km": 776.2415612520217, "timestamp": "2025-12-05T22:40:48.828276+00:00", "meta": {"OBJECT_NAME": "FENGYUN 1C DEB", "OBJECT_ID": "1999-025APG", "EPOCH": "2025-12-05T05:02:43.035648", "MEAN_MOTION": 14.29412134, "ECCENTRICITY": 0.00513956, "INCLINATION": 98.8103, "RA_OF_ASC_NODE": 74.4367, "ARG_OF_PERICENTER": 192.6329, "MEAN_ANOMALY": 227.0274, "EPHEMERIS_TYPE": 0, "CLASSIFICATION_TYPE": "U", "NORAD_CAT_ID": 30649, "ELEMENT_SET_NO": 999, "REV_AT_EPOCH": 96956, "BSTAR": 0.004074845, "MEAN_MOTION_DOT": 0.0001051, "MEAN_MOTION_DDOT": 0}, "tle": {"line1": "1 30649U 99025APG 25339.21022032  .00010510  00000+0  40748-2 0  9992", "line2": "2 30649  98.8103  74.4367 0051395 192.6329 227.0274 14.29412134969569"}}, "geometry": {"type": "Point", "coordinates": [-119.23028887752234, -58.06787819767419]}}, {"type": "Feature", "properties": {"norad_id": 30650, "name": "FENGYUN 1C DEB", "group": "fengyun-1c-debris", "lat": -74.46618093559849, "lon": 164.64905399003095, "alt_km": 819.0807208508804, "timestamp": "2025-12-05T22:40:48.828286+00:00", "meta": {"OBJECT_NAME": "FENGYUN 1C DEB", "OBJECT_ID": "1999-025APH", "EPOCH": "2025-12-05T01:22:15.535200", "MEAN_MOTION": 14.13869502, "ECCENTRICITY": 0.00720486, "INCLINATION": 99.204, "RA_OF_ASC_NODE": 19.4195, "ARG_OF_PERICENTER": 210.8324, "MEAN_ANOMALY": 209.1561, "EPHEMERIS_TYPE": 0, "CLASSIFICATION_TYPE": "U", "NORAD_CAT_ID": 30650, "ELEMENT_SET_NO": 999, "REV_AT_EPOCH": 96190, "BSTAR": 0.0032752859, "MEAN_MOTION_DOT": 6.321e-05, "MEAN_MOTION_DDOT": 0}, "tle": {"line1": "1 30650U 99025APH 25339.05712425  .00006321  00000+0  32753-2 0  9990", "line2": "2 30650  99.2040  19.4195 0072048 210.8324 209.1561 14.13869502961908"}}, "geometry": {"type": "Point", "coordinates": [164.64905399003095, -74.46618093559849]}}, {"type": "Feature", "properties": {"norad_id": 30652, "name": "FENGYUN 1C DEB", "group": "fengyun-1c-debris", "lat": 69.47575647847135, "lon": -142.33683610817837, "alt_km": 865.4868001469904, "timestamp": "2025-12-05T22:40:48.828296+00:00", "meta": {"OBJECT_NAME": "FENGYUN 1C DEB", "OBJECT_ID": "1999-025APJ", "EPOCH": "2025-12-05T01:57:24.476256", "MEAN_MOTION": 14.07801408, "ECCENTRICITY": 0.00073925, "INCLINATION": 98.7861, "RA_OF_ASC_NODE": 12.4224, "ARG_OF_PERICENTER": 289.9479, "MEAN_ANOMALY": 124.9, "EPHEMERIS_TYPE": 0, "CLASSIFICATION_TYPE": "U", "NORAD_CAT_ID": 30652, "ELEMENT_SET_NO": 999, "REV_AT_EPOCH": 96586, "BSTAR": 0.00012334786, "MEAN_MOTION_DOT": 1.66e-06, "MEAN_MOTION_DDOT": 0}, "tle": {"line1": "1 30652U 99025APJ 25339.08153329  .00000166  00000+0  12335-3 0  9993", "line2": "2 30652  98.7861  12.4224 0007392 289.9479 124.9000 14.07801408965864"}}, "geometry": {"type": "Point", "coordinates": [-142.33683610817837, 69.47575647847135]}}, {"type": "Feature", "properties": {"norad_id": 30654, "name": "FENGYUN 1C DEB", "group": "fengyun-1c-debris", "lat": -66.57453532493685, "lon": 60.84944713240398, "alt_km": 859.4156258177009, "timestamp": "2025-12-05T22:40:48.828306+00:00", "meta": {"OBJECT_NAME": "FENGYUN 1C DEB", "OBJECT_ID": "1999-025APL", "EPOCH": "2025-12-05T06:15:48.618432", "MEAN_MOTION": 14.170481, "ECCENTRICITY": 0.00346967, "INCLINATION": 99.2408, "RA_OF_ASC_NODE": 262.2096, "ARG_OF_PERICENTER": 117.6909, "MEAN_ANOMALY": 242.7792, "EPHEMERIS_TYPE": 0, "CLASSIFICATION_TYPE": "U", "NORAD_CAT_ID": 30654, "ELEMENT_SET_NO": 999, "REV_AT_EPOCH": 96574, "BSTAR": 0.0020066823, "MEAN_MOTION_DOT": 4.015e-05, "MEAN_MOTION_DDOT": 0}, "tle": {"line1": "1 30654U 99025APL 25339.26097938  .00004015  00000+0  20067-2 0  9995", "line2": "2 30654  99.2408 262.2096 0034696 117.6909 242.7792 14.17048100965740"}}, "geometry": {"type": "Point", "coordinates": [60.84944713240398, -66.57453532493685]}}, {"type": "Feature", "properties": {"norad_id": 30656, "name": "FENGYUN 1C DEB", "group": "fengyun-1c-debris", "lat": 67.66195046552541, "lon": 130.8861783040146, "alt_km": 717.8468596851608, "timestamp": "2025-12-05T22:40:48.828316+00:00", "meta": {"OBJECT_NAME": "FENGYUN 1C DEB", "OBJECT_ID": "1999-025APN", "EPOCH": "2025-12-05T05:44:36.040992", "MEAN_MOTION": 14.45109367, "ECCENTRICITY": 0.00303192, "INCLINATION": 99.0179, "RA_OF_ASC_NODE": 152.8732, "ARG_OF_PERICENTER": 109.2714, "MEAN_ANOMALY": 251.1759, "EPHEMERIS_TYPE": 0, "CLASSIFICATION_TYPE": "U", "NORAD_CAT_ID": 30656, "ELEMENT_SET_NO": 999, "REV_AT_EPOCH": 96977, "BSTAR": 0.005144077, "MEAN_MOTION_DOT": 0.0001809, "MEAN_MOTION_DDOT": 0}, "tle": {"line1": "1 30656U 99025APN 25339.23930603  .00018090  00000+0  51441-2 0  9997", "line2": "2 30656  99.0179 152.8732 0030319 109.2714 251.1759 14.45109367969773"}}, "geometry": {"type": "Point", "coordinates": [130.8861783040146, 67.66195046552541]}}, {"type": "Feature", "properties": {"norad_id": 30657, "name": "FENGYUN 1C DEB", "group": "fengyun-1c-debris", "lat": -9.9128084799651, "lon": 79.33475233927432, "alt_km": 756.8731662900364, "timestamp": "2025-12-05T22:40:48.828326+00:00", "meta": {"OBJECT_NAME": "FENGYUN 1C DEB", "OBJECT_ID": "1999-025APP", "EPOCH": "2025-12-04T18:56:24.749376", "MEAN_MOTION": 14.38435101, "ECCENTRICITY": 0.00158024, "INCLINATION": 98.8367, "RA_OF_ASC_NODE": 76.5878, "ARG_OF_PERICENTER": 10.2847, "MEAN_ANOMALY": 117.8602, "EPHEMERIS_TYPE": 0, "CLASSIFICATION_TYPE": "U", "NORAD_CAT_ID": 30657, "ELEMENT_SET_NO": 999, "REV_AT_EPOCH": 97118, "BSTAR": 0.0053095708, "MEAN_MOTION_DOT": 0.00016215, "MEAN_MOTION_DDOT": 0}, "tle": {"line1": "1 30657U 99025APP 25338.78917534  .00016215  00000+0  53096-2 0  9990", "line2": "2 30657  98.8367  76.5878 0015802  10.2847 117.8602 14.38435101971184"}}, "geometry": {"type": "Point", "coordinates": [79.33475233927432, -9.9128084799651]}}, {"type": "Feature", "properties": {"norad_id": 30658, "name": "FENGYUN 1C DEB", "group": "fengyun-1c-debris", "lat": 44.55408994864546, "lon": 4.6327020851812595, "alt_km": 1059.7187061858222, "timestamp": "2025-12-05T22:40:48.828335+00:00", "meta": {"OBJECT_NAME": "FENGYUN 1C DEB", "OBJECT_ID": "1999-025APQ", "EPOCH": "2025-12-03T01:12:41.803776", "MEAN_MOTION": 13.87127057, "ECCENTRICITY": 0.01832033, "INCLINATION": 98.4391, "RA_OF_ASC_NODE": 10.4218, "ARG_OF_PERICENTER": 254.1059, "MEAN_ANOMALY": 103.9843, "EPHEMERIS_TYPE": 0, "CLASSIFICATION_TYPE": "U", "NORAD_CAT_ID": 30658, "ELEMENT_SET_NO": 999, "REV_AT_EPOCH": 94550, "BSTAR": 0.0023182779, "MEAN_MOTION_DOT": 3.066e-05, "MEAN_MOTION_DDOT": 0}, "tle": {"line1": "1 30658U 99025APQ 25337.05048384  .00003066  00000+0  23183-2 0  9992", "line2": "2 30658  98.4391  10.4218 0183203 254.1059 103.9843 13.87127057945509"}}, "geometry": {"type": "Point", "coordinates": [4.6327020851812595, 44.55408994864546]}}, {"type": "Feature", "properties": {"norad_id": 30660, "name": "FENGYUN 1C DEB", "group": "fengyun-1c-debris", "lat": -28.459033476341496, "lon": -108.21914960093835, "alt_km": 693.2335820716007, "timestamp": "2025-12-05T22:40:48.828346+00:00", "meta": {"OBJECT_NAME": "FENGYUN 1C DEB", "OBJECT_ID": "1999-025APS", "EPOCH": "2025-12-05T05:43:26.101056", "MEAN_MOTION": 14.87399962, "ECCENTRICITY": 0.0138094, "INCLINATION": 98.1436, "RA_OF_ASC_NODE": 75.5075, "ARG_OF_PERICENTER": 358.8928, "MEAN_ANOMALY": 29.7811, "EPHEMERIS_TYPE": 0, "CLASSIFICATION_TYPE": "U", "NORAD_CAT_ID": 30660, "ELEMENT_SET_NO": 999, "REV_AT_EPOCH": 673, "BSTAR": 0.0010834288, "MEAN_MOTION_DOT": 0.00011628, "MEAN_MOTION_DDOT": 0}, "tle": {"line1": "1 30660U 99025APS 25339.23849654  .00011628  00000+0  10834-2 0  9998", "line2": "2 30660  98.1436  75.5075 0138094 358.8928  29.7811 14.87399962  6737"}}, "geometry": {"type": "Point", "coordinates": [-108.21914960093835, -28.459033476341496]}}, {"type": "Feature", "properties": {"norad_id": 30661, "name": "FENGYUN 1C DEB", "group": "fengyun-1c-debris", "lat": 75.85472320787206, "lon": 113.55176566969033, "alt_km": 713.2937916534429, "timestamp": "2025-12-05T22:40:48.828355+00:00", "meta": {"OBJECT_NAME": "FENGYUN 1C DEB", "OBJECT_ID": "1999-025APT", "EPOCH": "2025-12-04T05:45:49.116384", "MEAN_MOTION": 14.21134717, "ECCENTRICITY": 0.0144917, "INCLINATION": 99.487, "RA_OF_ASC_NODE": 153.2885, "ARG_OF_PERICENTER": 69.4681, "MEAN_ANOMALY": 292.1977, "EPHEMERIS_TYPE": 0, "CLASSIFICATION_TYPE": "U", "NORAD_CAT_ID": 30661, "ELEMENT_SET_NO": 999, "REV_AT_EPOCH": 97781, "BSTAR": 0.00021665, "MEAN_MOTION_DOT": 4.74e-06, "MEAN_MOTION_DDOT": 0}, "tle": {"line1": "1 30661U 99025APT 25338.24015181  .00000474  00000+0  21665-3 0  9991", "line2": "2 30661  99.4870 153.2885 0144917  69.4681 292.1977 14.21134717977817"}}, "geometry": {"type": "Point", "coordinates": [113.55176566969033, 75.85472320787206]}}]}